ELEKTRO-L 3             
1 44903U 19095A   26201.84721762 -.00000097  00000+0  00000+0 0  9997
2 44903   0.3414  82.4123 0001568  19.0713 218.1143  1.00271901 24046
SHIJIAN-20 (SJ-20)      
1 44910U 19097A   26201.84103699  .00000132  00000+0  00000+0 0  9999
2 44910   5.0023  74.6500 0015580  57.9055 153.5938  1.00272475 24033
TJS-5                   
1 44978U 20002A   26201.63128227 -.00000343  00000+0  00000+0 0  9997
2 44978   0.0784  79.4557 0008137 337.0777 216.6301  1.00271413 24041
GSAT-30                 
1 45026U 20005A   26201.84860429 -.00000165  00000+0  00000+0 0  9997
2 45026   0.0402 246.2604 0003345 205.1757 235.6855  1.00272947 23844
EUTELSAT KONNECT        
1 45027U 20005B   26201.83357434  .00000050  00000+0  00000+0 0  9996
2 45027   0.0683  94.4381 0002069 133.2983  18.1514  1.00275283 24679
JCSAT-17                
1 45245U 20013A   26201.85909101 -.00000315  00000+0  00000+0 0  9998
2 45245   5.3922 357.1892 0003240 131.1155 255.6120  1.00272858 23575
GEO-KOMPSAT-2B          
1 45246U 20013B   26201.93517113 -.00000344  00000+0  00000+0 0  9998
2 45246   0.0440 231.8820 0000395 313.9236 217.8137  1.00272384 23617
BEIDOU-3 G2             
1 45344U 20017A   26202.00585216 -.00000142  00000+0  00000+0 0  9995
2 45344   2.9317  47.8227 0001958  57.2887 275.7910  1.00272527 23590
AEHF-6 (USA 298)        
1 45465U 20022B   26201.93082036 -.00000297  00000+0  00000+0 0  9999
2 45465   2.4755 301.5986 0041782  15.5092  94.4263  1.00269780 23359
BEIDOU-3 G3             
1 45807U 20040A   26201.92536034 -.00000355  00000+0  00000+0 0  9995
2 45807   2.5285  67.5065 0002282 312.8170   2.0340  1.00273921 22405
APSTAR-6D               
1 45863U 20045A   26201.28845595 -.00000319  00000+0  00000+0 0  9996
2 45863   0.0351  81.0310 0002428  26.1518  68.7522  1.00271961 22190
KOREASAT 116            
1 45920U 20048A   26201.81503262 -.00000362  00000+0  00000+0 0  9992
2 45920   0.0182  17.5301 0001017 101.3334 229.3107  1.00274006 21977
EXPRESS 103             
1 45985U 20053A   26201.92993345 -.00000280  00000+0  00000+0 0  9995
2 45985   0.0291 248.5440 0000452 129.8571 351.5604  1.00272124 21989
EXPRESS 80              
1 45986U 20053B   26201.94811052  .00000000  00000+0  00000+0 0  9991
2 45986   0.0137 350.3116 0000954 287.0016  82.6759  1.00269029 21960
BSAT-4B                 
1 46112U 20056A   26201.76017132 -.00000350  00000+0  00000+0 0  9992
2 46112   0.0439 220.9070 0004554 270.2059 190.8922  1.00270277 21724
MEV-2                   
1 46113U 20056B   26201.83201433 -.00000011  00000+0  00000+0 0  9994
2 46113   0.0550 255.2491 0000180 301.0996  40.7723  1.00272527 81055
GALAXY 30 (G-30)        
1 46114U 20056C   26201.66482606  .00000036  00000+0  00000+0 0  9995
2 46114   0.0184  58.7653 0002159  56.9350 297.0671  1.00270661 21626
GAOFEN-13 01            
1 46610U 20071A   26201.53308740 -.00000364  00000+0  00000+0 0  9990
2 46610   0.4819  86.0878 0044446 119.9125  42.4375  1.00275684 21256
TIANTONG-1 2            
1 46916U 20082A   26201.50046972 -.00000356  00000+0  00000+0 0  9995
2 46916   0.7518 332.5690 0001337 135.7755 135.0399  1.00271587 20984
LUCAS (JDRS-1)          
1 47202U 20089A   26201.92146031 -.00000236  00000+0  00000+0 0  9991
2 47202   0.0611 268.0732 0001989 189.6267 263.5039  1.00272959 20756
SXM-7                   
1 47240U 20096A   26201.88665112 -.00000205  00000+0  00000+0 0  9998
2 47240   0.0220 102.3738 0003693  11.2753  59.0436  1.00272353  7789
CMS-01                  
1 47256U 20099A   26201.84860429 -.00000165  00000+0  00000+0 0  9997
2 47256   0.0184  71.8332 0003431 196.9694  58.3090  1.00272861 20530
TURKSAT 5A              
1 47306U 21001A   26201.84489260  .00000154  00000+0  00000+0 0  9994
2 47306   0.0159  76.4638 0000085 357.2201 199.9990  1.00271477 20304
TIANTONG-1 3            
1 47321U 21003A   26201.84834429 -.00000153  00000+0  00000+0 0  9994
2 47321   1.7316 341.4345 0003195 143.0559 201.0277  1.00269933 20291
TJS-6                   
1 47613U 21010A   26201.86749771  .00000043  00000+0  00000+0 0  9990
2 47613   0.1642 261.1617 0003166 238.3931 289.8855  1.00274630 20140
SBIRS GEO-5 (USA 315)   
1 48618U 21042A   26201.92206698 -.00000266  00000+0  00000+0 0  9992
2 48618   5.0615 329.3807 0001675 152.1615 242.8900  1.00271736 19112
FENGYUN 4B              
1 48808U 21047A   26201.85293765 -.00000331  00000+0  00000+0 0  9994
2 48808   0.2344  80.2811 0006847 274.0428 355.9704  1.00277287 18900
SXM-8                   
1 48838U 21049A   26201.81537427 -.00000206  00000+0  00000+0 0  9992
2 48838   0.0146  46.1480 0005996 346.9760 113.8474  1.00273023 18927
TIANLIAN 1-05           
1 49011U 21063A   26201.62151877  .00000106  00000+0  00000+0 0  9990
2 49011   1.6781  80.4238 0001234  85.7551  12.7930  1.00269993 18411
STAR ONE D2             
1 49055U 21069A   26201.60435870  .00000000  00000+0  00000+0 0  9993
2 49055   0.0080  22.2948 0002522 119.2807 304.3072  1.00269715 18277
EUTELSAT QUANTUM        
1 49056U 21069B   26201.84164367  .00000126  00000+0  00000+0 0  9999
2 49056   0.0124  44.5070 0002250  66.9717 177.8240  1.00274456 18263
ZHONGXING-2E            
1 49062U 21071A   26201.92293366 -.00000291  00000+0  00000+0 0  9994
2 49062   0.0436 233.7451 0001240 265.6511 229.6256  1.00272095 18371
