OBJECT_NAME,OBJECT_ID,EPOCH,MEAN_MOTION,ECCENTRICITY,INCLINATION,RA_OF_ASC_NODE,ARG_OF_PERICENTER,MEAN_ANOMALY,EPHEMERIS_TYPE,CLASSIFICATION_TYPE,NORAD_CAT_ID,ELEMENT_SET_NO,REV_AT_EPOCH,BSTAR,MEAN_MOTION_DOT,MEAN_MOTION_DDOT
ELEKTRO-L 3,2019-095A,2026-07-20T20:19:59.602368,1.00271901,.0001568,0.3414,82.4123,19.0713,218.1143,0,U,44903,999,2404,0,-.97E-6,0
SHIJIAN-20 (SJ-20),2019-097A,2026-07-20T20:11:05.595936,1.00272475,.001558,5.0023,74.6500,57.9055,153.5938,0,U,44910,999,2403,0,.132E-5,0
TJS-5,2020-002A,2026-07-20T15:09:02.788128,1.00271413,.0008137,0.0784,79.4557,337.0777,216.6301,0,U,44978,999,2404,0,-.343E-5,0
GSAT-30,2020-005A,2026-07-20T20:21:59.410656,1.00272947,.00033453,0.0402,246.2604,205.1757,235.6855,0,U,45026,999,2384,0,-.165E-5,0
EUTELSAT KONNECT,2020-005B,2026-07-20T20:00:20.822976,1.00275283,.00020698,0.0683,94.4381,133.2983,18.1514,0,U,45027,999,2467,0,.5E-6,0
JCSAT-17,2020-013A,2026-07-20T20:37:05.463264,1.00272858,.00032405,5.3922,357.1892,131.1155,255.6120,0,U,45245,999,2357,0,-.315E-5,0
GEO-KOMPSAT-2B,2020-013B,2026-07-20T22:26:38.785632,1.00272384,.00003954,0.0440,231.8820,313.9236,217.8137,0,U,45246,999,2361,0,-.344E-5,0
BEIDOU-3 G2,2020-017A,2026-07-21T00:08:25.626624,1.00272527,.00019583,2.9317,47.8227,57.2887,275.7910,0,U,45344,999,2359,0,-.142E-5,0
AEHF-6 (USA 298),2020-022B,2026-07-20T22:20:22.879104,1.00269780,.00417827,2.4755,301.5986,15.5092,94.4263,0,U,45465,999,2335,0,-.297E-5,0
BEIDOU-3 G3,2020-040A,2026-07-20T22:12:31.133376,1.00273921,.00022824,2.5285,67.5065,312.8170,2.0340,0,U,45807,999,2240,0,-.355E-5,0
APSTAR-6D,2020-045A,2026-07-20T06:55:22.594080,1.00271961,.0002428,0.0351,81.0310,26.1518,68.7522,0,U,45863,999,2219,0,-.319E-5,0
KOREASAT 116,2020-048A,2026-07-20T19:33:38.818368,1.00274006,.0001017,0.0182,17.5301,101.3334,229.3107,0,U,45920,999,2197,0,-.362E-5,0
EXPRESS 103,2020-053A,2026-07-20T22:19:06.250080,1.00272124,.00004521,0.0291,248.5440,129.8571,351.5604,0,U,45985,999,2198,0,-.28E-5,0
EXPRESS 80,2020-053B,2026-07-20T22:45:16.748928,1.00269029,.00009548,0.0137,350.3116,287.0016,82.6759,0,U,45986,999,2196,0,0,0
BSAT-4B,2020-056A,2026-07-20T18:14:38.802048,1.00270277,.00045549,0.0439,220.9070,270.2059,190.8922,0,U,46112,999,2172,0,-.35E-5,0
MEV-2,2020-056B,2026-07-20T19:58:06.038112,1.00272527,.00001809,0.0550,255.2491,301.0996,40.7723,0,U,46113,999,8105,0,-.11E-6,0
GALAXY 30 (G-30),2020-056C,2026-07-20T15:57:20.971584,1.00270661,.0002159,0.0184,58.7653,56.9350,297.0671,0,U,46114,999,2162,0,.36E-6,0
GAOFEN-13 01,2020-071A,2026-07-20T12:47:38.751360,1.00275684,.00444463,0.4819,86.0878,119.9125,42.4375,0,U,46610,999,2125,0,-.364E-5,0
TIANTONG-1 2,2020-082A,2026-07-20T12:00:40.583808,1.00271587,.00013376,0.7518,332.5690,135.7755,135.0399,0,U,46916,999,2098,0,-.356E-5,0
LUCAS (JDRS-1),2020-089A,2026-07-20T22:06:54.170784,1.00272959,.00019897,0.0611,268.0732,189.6267,263.5039,0,U,47202,999,2075,0,-.236E-5,0
SXM-7,2020-096A,2026-07-20T21:16:46.656768,1.00272353,.00036939,0.0220,102.3738,11.2753,59.0436,0,U,47240,999,778,0,-.205E-5,0
CMS-01,2020-099A,2026-07-20T20:21:59.410656,1.00272861,.00034318,0.0184,71.8332,196.9694,58.3090,0,U,47256,999,2053,0,-.165E-5,0
TURKSAT 5A,2021-001A,2026-07-20T20:16:38.720640,1.00271477,.00000859,0.0159,76.4638,357.2201,199.9990,0,U,47306,999,2030,0,.154E-5,0
TIANTONG-1 3,2021-003A,2026-07-20T20:21:36.946656,1.00269933,.00031957,1.7316,341.4345,143.0559,201.0277,0,U,47321,999,2029,0,-.153E-5,0
TJS-6,2021-010A,2026-07-20T20:49:11.802144,1.00274630,.00031664,0.1642,261.1617,238.3931,289.8855,0,U,47613,999,2014,0,.43E-6,0
SBIRS GEO-5 (USA 315),2021-042A,2026-07-20T22:07:46.587072,1.00271736,.00016757,5.0615,329.3807,152.1615,242.8900,0,U,48618,999,1911,0,-.266E-5,0
FENGYUN 4B,2021-047A,2026-07-20T20:28:13.812960,1.00277287,.00068471,0.2344,80.2811,274.0428,355.9704,0,U,48808,999,1890,0,-.331E-5,0
SXM-8,2021-049A,2026-07-20T19:34:08.336928,1.00273023,.00059964,0.0146,46.1480,346.9760,113.8474,0,U,48838,999,1892,0,-.206E-5,0
TIANLIAN 1-05,2021-063A,2026-07-20T14:54:59.221728,1.00269993,.0001234,1.6781,80.4238,85.7551,12.7930,0,U,49011,999,1841,0,.106E-5,0
STAR ONE D2,2021-069A,2026-07-20T14:30:16.591680,1.00269715,.00025226,0.0080,22.2948,119.2807,304.3072,0,U,49055,999,1827,0,0,0
EUTELSAT QUANTUM,2021-069B,2026-07-20T20:11:58.013088,1.00274456,.00022505,0.0124,44.5070,66.9717,177.8240,0,U,49056,999,1826,0,.126E-5,0
ZHONGXING-2E,2021-071A,2026-07-20T22:09:01.468224,1.00272095,.00012402,0.0436,233.7451,265.6511,229.6256,0,U,49062,999,1837,0,-.291E-5,0
